EXO-0                   
1 59175U 23174DK  26068.71046781  .00011582  00000+0  36716-3 0  9992
2 59175  97.3864 148.9039 0009878 157.1125 203.0559 15.32821991129797
STARLINK-31780          
1 59432U 24065M   26068.84833796  .00000704  00000+0  35900-4 0  9991
2 59432  53.1605 280.9375 0001327  91.6245 268.4908 15.30188189108953
